[{"OBJECT_NAME":"HAWK-10C","OBJECT_ID":"2024-149DM","EPOCH":"2026-03-09T19:12:00.010368","MEAN_MOTION":14.96177491,"ECCENTRICITY":0.0003886,"INCLINATION":97.6791,"RA_OF_ASC_NODE":145.3128,"ARG_OF_PERICENTER":47.6078,"MEAN_ANOMALY":312.5472,"EPHEMERIS_TYPE":0,"CLASSIFICATION_TYPE":"U","NORAD_CAT_ID":60575,"ELEMENT_SET_NO":999,"REV_AT_EPOCH":8512,"BSTAR":0.00025720063,"MEAN_MOTION_DOT":2.841e-5,"MEAN_MOTION_DDOT":0},{"OBJECT_NAME":"EZIE-C","OBJECT_ID":"2025-052AR","EPOCH":"2026-03-09T16:54:14.963904","MEAN_MOTION":14.96297342,"ECCENTRICITY":0.00032112,"INCLINATION":97.6981,"RA_OF_ASC_NODE":322.3863,"ARG_OF_PERICENTER":161.3597,"MEAN_ANOMALY":198.7743,"EPHEMERIS_TYPE":0,"CLASSIFICATION_TYPE":"U","NORAD_CAT_ID":63249,"ELEMENT_SET_NO":999,"REV_AT_EPOCH":5378,"BSTAR":0.0007072062,"MEAN_MOTION_DOT":7.941e-5,"MEAN_MOTION_DDOT":0}]
